[
  {
    "name": "KUIPER-00103",
    "noradId": "65141",
    "line1": "1 65141U 25171K   26153.17751582  .00001819  00000+0  26753-3 0  9990",
    "line2": "2 65141  51.8970 156.9539 0000341  72.0786 288.0213 14.79941007 45224"
  },
  {
    "name": "KUIPER-00104",
    "noradId": "65142",
    "line1": "1 65142U 25171L   26153.19100062  .00002817  00000+0  39836-3 0  9999",
    "line2": "2 65142  51.8998 144.3819 0000499  58.5636 301.5375 14.79933218 45409"
  },
  {
    "name": "KUIPER-00105",
    "noradId": "65143",
    "line1": "1 65143U 25171M   26153.14913915  .00002401  00000+0  34401-3 0  9996",
    "line2": "2 65143  51.8981 152.1740 0000720  86.1707 273.9338 14.79917501 45290"
  },
  {
    "name": "KUIPER-00106",
    "noradId": "65144",
    "line1": "1 65144U 25171N   26153.25003472 -.00008265  00000+0 -84601-3 0  9990",
    "line2": "2 65144  51.8972 130.7781 0008190  30.5175 114.3057 14.88941853  4961"
  },
  {
    "name": "KUIPER-00107",
    "noradId": "65145",
    "line1": "1 65145U 25171P   26153.16808920 -.00003089  00000+0 -37684-3 0  9990",
    "line2": "2 65145  51.8987 134.5316 0001169 359.5401   0.5560 14.79882091 45541"
  },
  {
    "name": "KUIPER-00108",
    "noradId": "65146",
    "line1": "1 65146U 25171Q   26153.18831895  .00002774  00000+0  39277-3 0  9998",
    "line2": "2 65146  51.8991 146.9725 0000552  58.6683 301.4333 14.79932131 45375"
  },
  {
    "name": "KUIPER-00109",
    "noradId": "65147",
    "line1": "1 65147U 25171R   26153.15990767  .00002635  00000+0  37451-3 0  9998",
    "line2": "2 65147  51.8991 142.0392 0000422  62.1507 297.9499 14.79934095 45434"
  },
  {
    "name": "KUIPER-00110",
    "noradId": "65148",
    "line1": "1 65148U 25171S   26153.18022795  .00002520  00000+0  35942-3 0  9995",
    "line2": "2 65148  51.8983 154.5177 0000628  99.4972 260.6061 14.79928665 45250"
  },
  {
    "name": "KUIPER-00111",
    "noradId": "65149",
    "line1": "1 65149U 25171T   26152.39822514  .00002083  00000+0  30221-3 0  9994",
    "line2": "2 65149  51.8948 162.8649 0000503  85.0681 275.0339 14.79926898 45072"
  },
  {
    "name": "KUIPER-00112",
    "noradId": "65150",
    "line1": "1 65150U 25171U   26151.56970583 -.00073056  00000+0 -96833-2 0  9994",
    "line2": "2 65150  51.9006 149.0866 0001723  16.9020 343.2000 14.79823345 45192"
  },
  {
    "name": "KUIPER-00114",
    "noradId": "65151",
    "line1": "1 65151U 25171V   26152.46307399  .00002133  00000+0  30866-3 0  9995",
    "line2": "2 65151  51.8978 165.1525 0000424  67.9993 292.1015 14.79934655 45042"
  },
  {
    "name": "KUIPER-00115",
    "noradId": "65152",
    "line1": "1 65152U 25171W   26152.40359051  .00002301  00000+0  33067-3 0  9995",
    "line2": "2 65152  51.8985 157.9112 0000542  91.5104 268.5921 14.79931410 45140"
  },
  {
    "name": "KUIPER-00116",
    "noradId": "65153",
    "line1": "1 65153U 25171X   26153.17483163  .00002319  00000+0  33301-3 0  9993",
    "line2": "2 65153  51.8982 159.5368 0000406  62.0964 298.0040 14.79941193 45188"
  },
  {
    "name": "KUIPER-00118",
    "noradId": "65154",
    "line1": "1 65154U 25171Y   26153.17211715  .00002526  00000+0  36019-3 0  9995",
    "line2": "2 65154  51.8970 162.0030 0000540  82.3130 277.7893 14.79940678 45154"
  },
  {
    "name": "KUIPER-00119",
    "noradId": "65155",
    "line1": "1 65155U 25171Z   26153.25003472 -.00022431  00000+0 -29205-2 0  9991",
    "line2": "2 65155  51.8982 149.2482 0001077 104.0009 239.4894 14.79970015  5744"
  },
  {
    "name": "KUIPER-00120",
    "noradId": "65762",
    "line1": "1 65762U 25217A   26152.13936264  .00001283  00000+0  19728-3 0  9996",
    "line2": "2 65762  51.9009  44.0447 0000581 112.8272 247.2752 14.79937492 37095"
  },
  {
    "name": "KUIPER-00132",
    "noradId": "65763",
    "line1": "1 65763U 25217B   26152.66030416  .00045071  00000+0  10378-2 0  9993",
    "line2": "2 65763  51.8554 315.0183 0006276 262.7945  97.2330 15.42149265 38378"
  },
  {
    "name": "KUIPER-00133",
    "noradId": "65764",
    "line1": "1 65764U 25217C   26152.10560268  .00002328  00000+0  33423-3 0  9991",
    "line2": "2 65764  51.9023  44.2831 0000678 104.9308 255.1730 14.79943022 37091"
  },
  {
    "name": "KUIPER-00139",
    "noradId": "65765",
    "line1": "1 65765U 25217D   26153.25003472 -.00105094  00000+0 -10565-1 0  9994",
    "line2": "2 65765  51.8946   6.7967 0010137 228.3347 244.3213 14.91306677  4704"
  },
  {
    "name": "KUIPER-00142",
    "noradId": "65766",
    "line1": "1 65766U 25217E   26152.02317635  .00001645  00000+0  24470-3 0  9995",
    "line2": "2 65766  51.9016  27.0854 0000525 104.7423 255.3597 14.79930313 37324"
  },
  {
    "name": "KUIPER-00145",
    "noradId": "65767",
    "line1": "1 65767U 25217F   26151.95296117  .00001682  00000+0  24962-3 0  9995",
    "line2": "2 65767  51.9011  29.9146 0000690 108.7114 251.3923 14.79934702 37278"
  },
  {
    "name": "KUIPER-00147",
    "noradId": "65768",
    "line1": "1 65768U 25217G   26151.84896374  .00001056  00000+0  16755-3 0  9991",
    "line2": "2 65768  51.9007  32.8620 0000977  74.4249 285.6821 14.79933051 37228"
  },
  {
    "name": "KUIPER-00148",
    "noradId": "65769",
    "line1": "1 65769U 25217H   26152.02831316  .00003924  00000+0  59646-3 0  9990",
    "line2": "2 65769  51.9059  13.4273 0001103 119.4669 240.6402 14.75912348 37513"
  },
  {
    "name": "KUIPER-00150",
    "noradId": "65770",
    "line1": "1 65770U 25217J   26152.10829901  .00003654  00000+0  50801-3 0  9992",
    "line2": "2 65770  51.9020  41.7380 0000614  95.6104 264.4928 14.79939392 37127"
  },
  {
    "name": "KUIPER-00151",
    "noradId": "65771",
    "line1": "1 65771U 25217K   26152.92674626  .00001809  00000+0  26617-3 0  9993",
    "line2": "2 65771  51.9020  30.6161 0000766 101.8380 258.2668 14.79939515 37350"
  },
  {
    "name": "KUIPER-00152",
    "noradId": "65772",
    "line1": "1 65772U 25217L   26152.02857247  .00001956  00000+0  28552-3 0  9990",
    "line2": "2 65772  51.9001  22.0739 0000895 115.9493 244.1562 14.79939187 37396"
  },
  {
    "name": "KUIPER-00153",
    "noradId": "65773",
    "line1": "1 65773U 25217M   26152.03398979  .00005103  00000+0  69679-3 0  9997",
    "line2": "2 65773  51.9035  17.1186 0000997 121.1222 238.9839 14.80000069 37463"
  },
  {
    "name": "KUIPER-00155",
    "noradId": "65774",
    "line1": "1 65774U 25217N   26152.73893282  .00001312  00000+0  20106-3 0  9992",
    "line2": "2 65774  51.9034 346.4629 0000778 132.3734 227.7294 14.79934532 37956"
  },
  {
    "name": "KUIPER-00156",
    "noradId": "65775",
    "line1": "1 65775U 25217P   26152.06773648  .00004619  00000+0  63419-3 0  9999",
    "line2": "2 65775  51.9039  16.9497 0000592 121.9927 238.1094 14.79948071 37469"
  },
  {
    "name": "KUIPER-00163",
    "noradId": "65777",
    "line1": "1 65777U 25217R   26153.25003472  .00089169  00000+0  38623-3 0  9996",
    "line2": "2 65777  51.8929 343.3218 0003181 242.7017   3.3255 15.84136676  4029"
  },
  {
    "name": "KUIPER-00165",
    "noradId": "65778",
    "line1": "1 65778U 25217S   26151.85436153  .00000951  00000+0  15367-3 0  9999",
    "line2": "2 65778  51.9018  27.8478 0000915 110.8517 249.2543 14.79934492 37295"
  },
  {
    "name": "KUIPER-00166",
    "noradId": "65779",
    "line1": "1 65779U 25217T   26152.03666953  .00000819  00000+0  13642-3 0  9991",
    "line2": "2 65779  51.9024  14.5815 0000794 138.7912 221.3110 14.79932360 37499"
  },
  {
    "name": "KUIPER-00167",
    "noradId": "65780",
    "line1": "1 65780U 25217U   26152.11366424  .00013784  00000+0  18314-2 0  9997",
    "line2": "2 65780  51.8969  36.6296 0000678 120.1982 239.9047 14.79978759 37192"
  },
  {
    "name": "KUIPER-00168",
    "noradId": "65781",
    "line1": "1 65781U 25217V   26152.06503579  .00000860  00000+0  14182-3 0  9997",
    "line2": "2 65781  51.9009  19.4200 0000613  95.9312 264.1720 14.79932241 37439"
  },
  {
    "name": "KUIPER-00169",
    "noradId": "65782",
    "line1": "1 65782U 25217W   26152.05964798  .00001132  00000+0  17743-3 0  9990",
    "line2": "2 65782  51.9012  24.4516 0001064 131.8640 228.2413 14.79935336 37365"
  },
  {
    "name": "KUIPER-00170",
    "noradId": "65783",
    "line1": "1 65783U 25217X   26153.20209800 -.00008616  00000+0 -11028-2 0  9990",
    "line2": "2 65783  51.8989  24.3638 0000828  73.6105 286.4948 14.79925007 37462"
  },
  {
    "name": "KUIPER-00172",
    "noradId": "65785",
    "line1": "1 65785U 25217Z   26153.25003472 -.00033528  00000+0 -43950-2 0  9993",
    "line2": "2 65785  51.8996   6.6827 0002006  11.8605 322.4123 14.79891847  5492"
  },
  {
    "name": "KUIPER-00173",
    "noradId": "65786",
    "line1": "1 65786U 25217AA  26152.02588414  .00001842  00000+0  27049-3 0  9996",
    "line2": "2 65786  51.9026  24.6016 0001019  84.4264 275.6815 14.79937271 37357"
  },
  {
    "name": "KUIPER-00174",
    "noradId": "65787",
    "line1": "1 65787U 25217AB  26152.03126428  .00005283  00000+0  72114-3 0  9997",
    "line2": "2 65787  51.9039  19.6145 0000908 113.3413 246.7645 14.79954775 37429"
  },
  {
    "name": "KUIPER-00176",
    "noradId": "65788",
    "line1": "1 65788U 25217AC  26152.08262358  .00000280  00000+0  65733-4 0  9998",
    "line2": "2 65788  51.9022  34.3352 0000928 109.7381 250.3682 14.79937010 37224"
  },
  {
    "name": "KUIPER-00101",
    "noradId": "65947",
    "line1": "1 65947U 25228A   26152.70246157  .00001984  00000+0  28915-3 0  9997",
    "line2": "2 65947  51.8996 349.0578 0000592 104.8896 255.2132 14.79935707 35672"
  },
  {
    "name": "KUIPER-00113",
    "noradId": "65948",
    "line1": "1 65948U 25228B   26151.93126706  .00000819  00000+0  13639-3 0  9992",
    "line2": "2 65948  51.8982 347.4859 0000548  97.6566 262.4458 14.79931436 35627"
  },
  {
    "name": "KUIPER-00117",
    "noradId": "65949",
    "line1": "1 65949U 25228C   26152.70515964  .00001946  00000+0  28420-3 0  9993",
    "line2": "2 65949  51.8986 346.5659 0000707 106.3358 253.7682 14.79938661 35702"
  }
]